NORAD_CAT_ID,OBJECT_NAME,OBJECT_TYPE,EPOCH,MEAN_MOTION,ECCENTRICITY,INCLINATION,RA_OF_ASC_NODE,ARG_OF_PERICENTER,MEAN_ANOMALY,BSTAR,MEAN_MOTION_DOT,MEAN_MOTION_DDOT,TLE_LINE0,TLE_LINE1,TLE_LINE2,SEMIMAJOR_AXIS,PERIOD,APOGEE,PERIGEE,DECAYED
49727.0,STARLINK-3242,PAYLOAD,2024-04-16 11:42:02,15.08856785,0.0001354,53.2187,26.5329,84.1449,275.9697,0.00027992,4.172e-05,0.0,0 STARLINK-3242,1 49727U 21115D   24107.48753073  .00004172  00000-0  27992-3 0  9996,2 49727  53.2187  26.5329 0001354  84.1449 275.9697 15.08856785130896,6917.829,95.436,540.631,538.757,0.0
49727.0,STARLINK-3242,PAYLOAD,2024-04-17 03:35:52,15.0888122,9.98e-05,53.2165,23.5623,85.3517,274.7589,0.00081029,0.00012646,0.0,0 STARLINK-3242,1 49727U 21115D   24108.14991585  .00012646  00000-0  81029-3 0  9998,2 49727  53.2165  23.5623 0000998  85.3517 274.7589 15.08881220132114,6917.754,95.435,540.31,538.929,0.0
49727.0,STARLINK-3242,PAYLOAD,2024-04-17 22:40:31,15.08833204,0.0001304,53.2167,19.9945,70.3419,289.7714,-0.00012678,-2.305e-05,0.0,0 STARLINK-3242,1 49727U 21115D   24108.94481370 -.00002305  00000-0 -12678-3 0  9999,2 49727  53.2167  19.9945 0001304  70.3419 289.7714 15.08833204132237,6917.901,95.438,540.668,538.864,0.0
49727.0,STARLINK-3242,PAYLOAD,2024-04-18 09:48:13,15.08856976,0.0001639,53.2185,17.9119,53.1815,306.9328,0.00044239,6.763e-05,0.0,0 STARLINK-3242,1 49727U 21115D   24109.40848840  .00006763  00000-0  44239-3 0  9998,2 49727  53.2185  17.9119 0001639  53.1815 306.9328 15.08856976132300,6917.829,95.436,540.827,538.56,0.0
49727.0,STARLINK-3242,PAYLOAD,2024-04-18 22:31:19,15.08818897,0.0001188,53.2173,15.5345,73.3446,286.7677,-0.00026928,-4.568e-05,0.0,0 STARLINK-3242,1 49727U 21115D   24109.93842334 -.00004568  00000-0 -26928-3 0  9996,2 49727  53.2173  15.5345 0001188  73.3446 286.7677 15.08818897131261,6917.945,95.439,540.632,538.988,0.0
49727.0,STARLINK-3242,PAYLOAD,2024-04-19 03:17:28,15.08830923,0.0001123,53.2177,14.6405,100.5884,259.5235,0.00019043,2.743e-05,0.0,0 STARLINK-3242,1 49727U 21115D   24110.13713613  .00002743  00000-0  19043-3 0  9998,2 49727  53.2177  14.6405 0001123 100.5884 259.5235 15.08830923132410,6917.908,95.438,540.55,538.996,0.0
49727.0,STARLINK-3242,PAYLOAD,2024-04-19 20:46:43,15.08858248,0.0001421,53.2192,11.3651,111.4286,248.6858,0.00066946,0.00010388,0.0,0 STARLINK-3242,1 49727U 21115D   24110.86577551  .00010388  00000-0  66946-3 0  9995,2 49727  53.2192  11.3651 0001421 111.4286 248.6858 15.08858248132524,6917.825,95.436,540.673,538.707,0.0
49727.0,STARLINK-3242,PAYLOAD,2024-04-19 22:22:06,15.08870488,0.0001533,53.2194,11.0689,84.1983,275.9183,0.0018311,0.00028999,0.0,0 STARLINK-3242,1 49727U 21115D   24110.93202024  .00028999  00000-0  18311-2 0  9992,2 49727  53.2194  11.0689 0001533  84.1983 275.9183 15.08870488131419,6917.787,95.436,540.713,538.592,0.0
49727.0,STARLINK-3242,PAYLOAD,2024-04-20 03:08:15,15.0889375,0.0001499,53.2199,10.1752,95.5653,264.551,0.002095,0.00033261,0.0,0 STARLINK-3242,1 49727U 21115D   24111.13073221  .00033261  00000-0  20950-2 0  9990,2 49727  53.2199  10.1752 0001499  95.5653 264.5510 15.08893750132568,6917.716,95.434,540.618,538.544,0.0
49727.0,STARLINK-3242,PAYLOAD,2024-04-20 20:37:30,15.0881914,0.0001449,53.22,6.9054,39.0361,321.0735,0.00022521,3.296e-05,0.0,0 STARLINK-3242,1 49727U 21115D   24111.85938043  .00003296  00000-0  22521-3 0  9993,2 49727  53.2200   6.9054 0001449  39.0361 321.0735 15.08819140132674,6917.944,95.439,540.812,538.807,0.0
49727.0,STARLINK-3242,PAYLOAD,2024-04-20 23:48:16,15.08819298,0.0001399,53.219,6.314,78.4763,281.6386,-0.00085008,-0.00013784,0.0,0 STARLINK-3242,1 49727U 21115D   24111.99186092 -.00013784  00000-0 -85008-3 0  9991,2 49727  53.2190   6.3140 0001399  78.4763 281.6386 15.08819298131574,6917.944,95.439,540.776,538.841,0.0
49727.0,STARLINK-3242,PAYLOAD,2024-04-21 20:28:18,15.08839746,0.000135,53.2184,2.4505,68.665,291.4486,0.0015146,0.00023899,0.0,0 STARLINK-3242,1 49727U 21115D   24112.85299595  .00023899  00000-0  15146-2 0  9991,2 49727  53.2184   2.4505 0001350  68.6650 291.4486 15.08839746132821,6917.881,95.438,540.68,538.812,0.0
49727.0,STARLINK-3242,PAYLOAD,2024-04-21 22:03:41,15.08852447,0.0001414,53.2191,2.1556,79.6725,280.4427,0.0019965,0.0003164,0.0,0 STARLINK-3242,1 49727U 21115D   24112.91923468  .00031640  00000-0  19965-2 0  9997,2 49727  53.2191   2.1556 0001414  79.6725 280.4427 15.08852447131711,6917.842,95.437,540.686,538.729,0.0
49727.0,STARLINK-3242,PAYLOAD,2024-04-22 02:49:50,15.08878457,0.0001486,53.2189,1.2592,91.9995,268.1168,0.0026168,0.00041649,0.0,0 STARLINK-3242,1 49727U 21115D   24113.11794944  .00041649  00000-0  26168-2 0  9998,2 49727  53.2189   1.2592 0001486  91.9995 268.1168 15.08878457132864,6917.763,95.435,540.656,538.6,0.0
49727.0,STARLINK-3242,PAYLOAD,2024-04-22 20:19:04,15.08864084,0.0003432,53.2174,357.9835,146.2778,213.8433,0.0017992,0.00028483,0.0,0 STARLINK-3242,1 49727U 21115D   24113.84658489  .00028483  00000-0  17992-2 0  9997,2 49727  53.2174 357.9835 0003432 146.2778 213.8433 15.08864084132970,6917.807,95.436,542.046,537.298,0.0
49727.0,STARLINK-3242,PAYLOAD,2024-04-22 21:54:28,15.08857441,0.0001268,53.2188,357.6971,101.1886,258.9248,0.0014096,0.00022228,0.0,0 STARLINK-3242,1 49727U 21115D   24113.91282837  .00022228  00000-0  14096-2 0  9998,2 49727  53.2188 357.6971 0001268 101.1886 258.9248 15.08857441131868,6917.827,95.436,540.569,538.815,0.0
49727.0,STARLINK-3242,PAYLOAD,2024-04-23 02:40:37,15.08871135,0.000119,53.2186,356.8027,73.567,286.5453,0.0018665,0.00029568,0.0,0 STARLINK-3242,1 49727U 21115D   24114.11154605  .00029568  00000-0  18665-2 0  9992,2 49727  53.2186 356.8027 0001190  73.5670 286.5453 15.08871135131890,6917.785,95.436,540.473,538.827,0.0
49727.0,STARLINK-3242,PAYLOAD,2024-04-23 20:09:52,15.08845841,0.000443,53.2178,353.5199,150.7244,209.3998,0.0013207,0.00020799,0.0,0 STARLINK-3242,1 49727U 21115D   24114.84018779  .00020799  00000-0  13207-2 0  9997,2 49727  53.2178 353.5199 0004430 150.7244 209.3998 15.08845841133120,6917.863,95.437,542.792,536.663,0.0
49727.0,STARLINK-3242,PAYLOAD,2024-04-23 21:45:15,15.08841893,0.0001684,53.2177,353.2305,112.6544,247.4626,0.0014222,0.0002242,0.0,0 STARLINK-3242,1 49727U 21115D   24114.90643381  .00022420  00000-0  14222-2 0  9998,2 49727  53.2177 353.2305 0001684 112.6544 247.4626 15.08841893132014,6917.875,95.437,540.905,538.575,0.0
49727.0,STARLINK-3242,PAYLOAD,2024-04-24 00:56:02,15.08859394,0.000142,53.2178,352.6365,100.863,259.2522,0.002243,0.00035609,0.0,0 STARLINK-3242,1 49727U 21115D   24115.03891287  .00035609  00000-0  22430-2 0  9996,2 49727  53.2178 352.6365 0001420 100.8630 259.2522 15.08859394133154,6917.821,95.436,540.668,538.704,0.0
49727.0,STARLINK-3242,PAYLOAD,2024-04-24 20:00:40,15.08833019,0.0001081,53.2174,349.0718,80.9176,279.1938,0.0015029,0.00023707,0.0,0 STARLINK-3242,1 49727U 21115D   24115.83380687  .00023707  00000-0  15029-2 0  9993,2 49727  53.2174 349.0718 0001081  80.9176 279.1938 15.08833019133279,6917.902,95.438,540.515,539.019,0.0
49727.0,STARLINK-3242,PAYLOAD,2024-04-24 21:36:04,15.08834735,0.0001135,53.2174,348.7741,98.7082,261.4039,0.0015498,0.00024459,0.0,0 STARLINK-3242,1 49727U 21115D   24115.90004675  .00024459  00000-0  15498-2 0  9996,2 49727  53.2174 348.7741 0001135  98.7082 261.4039 15.08834735132163,6917.896,95.438,540.547,538.976,0.0
49727.0,STARLINK-3242,PAYLOAD,2024-04-24 23:11:27,15.08835208,0.000118,53.2173,348.477,72.2043,287.9078,0.0016327,0.00025788,0.0,0 STARLINK-3242,1 49727U 21115D   24115.96628850  .00025788  00000-0  16327-2 0  9997,2 49727  53.2173 348.4770 0001180  72.2043 287.9078 15.08835208132178,6917.895,95.438,540.576,538.944,0.0
49727.0,STARLINK-3242,PAYLOAD,2024-04-25 19:51:27,15.08868152,0.0001307,53.2172,344.6103,65.2887,294.8241,0.0014764,0.00023305,0.0,0 STARLINK-3242,1 49727U 21115D   24116.82740293  .00023305  00000-0  14764-2 0  9995,2 49727  53.2172 344.6103 0001307  65.2887 294.8241 15.08868152133426,6917.794,95.436,540.563,538.755,0.0
49727.0,STARLINK-3242,PAYLOAD,2024-04-25 21:26:50,15.08872146,0.0001417,53.2171,344.3133,61.3318,298.7817,0.0015217,0.00024034,0.0,0 STARLINK-3242,1 49727U 21115D   24116.89364172  .00024034  00000-0  15217-2 0  9994,2 49727  53.2171 344.3133 0001417  61.3318 298.7817 15.08872146132310,6917.782,95.436,540.627,538.667,0.0
49727.0,STARLINK-3242,PAYLOAD,2024-04-26 08:34:31,15.08870182,4.55e-05,53.2173,342.2305,99.1735,260.9309,0.00043955,6.72e-05,0.0,0 STARLINK-3242,1 49727U 21115D   24117.35731142  .00006720  00000-0  43955-3 0  9994,2 49727  53.2173 342.2305 0000455  99.1735 260.9309 15.08870182133500,6917.788,95.436,539.968,539.338,0.0
49727.0,STARLINK-3242,PAYLOAD,2024-04-26 21:17:37,15.08854223,0.0001845,53.2171,339.8496,102.9107,257.2091,0.00085881,0.00013412,0.0,0 STARLINK-3242,1 49727U 21115D   24117.88723400  .00013412  00000-0  85881-3 0  9990,2 49727  53.2171 339.8496 0001845 102.9107 257.2091 15.08854223133584,6917.837,95.437,540.978,538.426,0.0
49727.0,STARLINK-3242,PAYLOAD,2024-04-27 21:08:24,15.08850576,0.000123,53.2175,335.3909,76.2719,283.841,0.00064418,9.982e-05,0.0,0 STARLINK-3242,1 49727U 21115D   24118.88083467  .00009982  00000-0  64418-3 0  9993,2 49727  53.2175 335.3909 0001230  76.2719 283.8410 15.08850576133732,6917.848,95.437,540.564,538.862,0.0
49727.0,STARLINK-3242,PAYLOAD,2024-04-28 14:37:38,15.08838042,0.0001523,53.2156,332.1171,73.876,286.2399,0.00044801,6.849e-05,0.0,0 STARLINK-3242,1 49727U 21115D   24119.60947729  .00006849  00000-0  44801-3 0  9997,2 49727  53.2156 332.1171 0001523  73.8760 286.2399 15.08838042132726,6917.886,95.438,540.805,538.698,0.0
49727.0,STARLINK-3242,PAYLOAD,2024-04-28 20:59:11,15.08839938,0.0001204,53.217,330.93,82.571,277.5419,0.00014195,1.972e-05,0.0,0 STARLINK-3242,1 49727U 21115D   24119.87443773  .00001972  00000-0  14195-3 0  9991,2 49727  53.2170 330.9300 0001204  82.5710 277.5419 15.08839938133889,6917.881,95.438,540.578,538.913,0.0
